[{"OBJECT_NAME":"STARLINK-31492","OBJECT_ID":"2024-046M","EPOCH":"2026-03-09T22:33:53.853696","MEAN_MOTION":15.30189057,"ECCENTRICITY":9.53e-5,"INCLINATION":53.1606,"RA_OF_ASC_NODE":154.4719,"ARG_OF_PERICENTER":94.1692,"MEAN_ANOMALY":265.9417,"EPHEMERIS_TYPE":0,"CLASSIFICATION_TYPE":"U","NORAD_CAT_ID":59212,"ELEMENT_SET_NO":999,"REV_AT_EPOCH":11307,"BSTAR":1.055016e-5,"MEAN_MOTION_DOT":-4.7e-7,"MEAN_MOTION_DDOT":0},{"OBJECT_NAME":"TITAN 4B R\/B","OBJECT_ID":"2005-016B","EPOCH":"2026-03-09T20:27:57.848832","MEAN_MOTION":15.42682045,"ECCENTRICITY":0.00616552,"INCLINATION":56.9964,"RA_OF_ASC_NODE":245.9411,"ARG_OF_PERICENTER":20.2929,"MEAN_ANOMALY":340.0555,"EPHEMERIS_TYPE":0,"CLASSIFICATION_TYPE":"U","NORAD_CAT_ID":28647,"ELEMENT_SET_NO":999,"REV_AT_EPOCH":37707,"BSTAR":0.00046483736,"MEAN_MOTION_DOT":0.0002164,"MEAN_MOTION_DDOT":0}]
